FLOCK 4Q-16             
1 58271U 23174R   26200.19063342  .00013081  00000+0  23090-3 0  9997
2 58271  97.3815 289.0703 0006653  65.7554 294.4392 15.50483630150531
FLOCK 4Q-11             
1 58273U 23174T   26200.22688161  .00015400  00000+0  26667-3 0  9995
2 58273  97.3851 289.7483 0006012  59.0403 301.1439 15.50992059150553
FLOCK 4Q-28             
1 58280U 23174AA  26200.20015862  .00017936  00000+0  25050-3 0  9994
2 58280  97.3878 292.4941 0004510  50.3018 309.8634 15.56915539150722
FLOCK 4Q-27             
1 58282U 23174AC  26200.20143965  .00019996  00000+0  27693-3 0  9995
2 58282  97.3805 291.8990 0003636  56.7108 303.4496 15.57123490150734
FLOCK 4Q-7              
1 58318U 23174BQ  26200.21855540  .00020294  00000+0  27672-3 0  9995
2 58318  97.3902 292.8445 0004211  28.1721 331.9762 15.57537555150735
FLOCK 4Q-2              
1 58320U 23174BS  26200.27632451  .00014067  00000+0  24420-3 0  9997
2 58320  97.3837 289.5101 0004368  38.6369 321.5195 15.50953430150578
FLOCK 4Q-9              
1 58322U 23174BU  26200.22714849  .00016069  00000+0  27342-3 0  9996
2 58322  97.3845 289.5750 0005213  36.8651 323.2959 15.51483891150558
FLOCK 4Q-4              
1 58327U 23174BZ  26200.24530772  .00013183  00000+0  23694-3 0  9994
2 58327  97.3819 288.6982 0005451  63.6293 296.5518 15.49976512150529
FLOCK 4Q-13             
1 58328U 23174CA  26200.22246851  .00012918  00000+0  20867-3 0  9999
2 58328  97.3997 292.0077 0005579  43.4648 316.7044 15.52991681150642
FLOCK 4BE-18            
1 60480U 24149N   26200.19534523  .00010028  00000+0  23099-3 0  9996
2 60480  97.3717 284.2810 0005391 134.1066 226.0626 15.42793691107243
FLOCK 4BE-7             
1 60481U 24149P   26200.23172570  .00014914  00000+0  35650-3 0  9996
2 60481  97.3747 283.6022 0004431 138.2859 221.8727 15.41579973107186
FLOCK 4BE-36            
1 60486U 24149U   26200.21450860  .00009320  00000+0  20899-3 0  9994
2 60486  97.3735 285.0469 0005046 141.5364 218.6245 15.43621890107299
FLOCK 4BE-25            
1 60487U 24149V   26200.20234150  .00007714  00000+0  19795-3 0  9994
2 60487  97.3786 283.5871 0003868 132.9138 227.2433 15.39611094107160
FLOCK 4BE-31            
1 60488U 24149W   26200.21409400  .00011151  00000+0  23626-3 0  9996
2 60488  97.3788 286.0021 0004022 141.0793 219.0746 15.45255878107324
FLOCK 4BE-20            
1 60489U 24149X   26200.18137597  .00006951  00000+0  18287-3 0  9997
2 60489  97.3684 282.3641 0005302 142.0662 218.0958 15.38874719107131
FLOCK 4BE-23            
1 60490U 24149Y   26200.18042176  .00007777  00000+0  20732-3 0  9992
2 60490  97.3771 282.7557 0004947 145.2140 214.9430 15.38428524107117
