{"fetched_at":"2026-07-19T17:31:11.372Z","source":"https://celestrak.org/NORAD/elements/gp.php?GROUP=planet&FORMAT=JSON","constellation":"superdove","records":[{"OBJECT_NAME":"FLOCK 4Q-16","OBJECT_ID":"2023-174R","EPOCH":"2026-07-19T04:34:30.727488","CLASSIFICATION_TYPE":"U","MEAN_MOTION":15.5048363,"ECCENTRICITY":0.00066534,"INCLINATION":97.3815,"RA_OF_ASC_NODE":289.0703,"ARG_OF_PERICENTER":65.7554,"MEAN_ANOMALY":294.4392,"EPHEMERIS_TYPE":0,"NORAD_CAT_ID":58271,"ELEMENT_SET_NO":999,"REV_AT_EPOCH":15053,"BSTAR":0.00023090259,"MEAN_MOTION_DOT":0.00013081,"MEAN_MOTION_DDOT":0},{"OBJECT_NAME":"FLOCK 4Q-11","OBJECT_ID":"2023-174T","EPOCH":"2026-07-19T05:26:42.571104","CLASSIFICATION_TYPE":"U","MEAN_MOTION":15.50992059,"ECCENTRICITY":0.00060128,"INCLINATION":97.3851,"RA_OF_ASC_NODE":289.7483,"ARG_OF_PERICENTER":59.0403,"MEAN_ANOMALY":301.1439,"EPHEMERIS_TYPE":0,"NORAD_CAT_ID":58273,"ELEMENT_SET_NO":999,"REV_AT_EPOCH":15055,"BSTAR":0.00026667499,"MEAN_MOTION_DOT":0.000154,"MEAN_MOTION_DDOT":0},{"OBJECT_NAME":"FLOCK 4Q-28","OBJECT_ID":"2023-174AA","EPOCH":"2026-07-19T04:48:13.704768","CLASSIFICATION_TYPE":"U","MEAN_MOTION":15.56915539,"ECCENTRICITY":0.000451,"INCLINATION":97.3878,"RA_OF_ASC_NODE":292.4941,"ARG_OF_PERICENTER":50.3018,"MEAN_ANOMALY":309.8634,"EPHEMERIS_TYPE":0,"NORAD_CAT_ID":58280,"ELEMENT_SET_NO":999,"REV_AT_EPOCH":15072,"BSTAR":0.00025050077,"MEAN_MOTION_DOT":0.00017936,"MEAN_MOTION_DDOT":0},{"OBJECT_NAME":"FLOCK 4Q-27","OBJECT_ID":"2023-174AC","EPOCH":"2026-07-19T04:50:04.385760","CLASSIFICATION_TYPE":"U","MEAN_MOTION":15.5712349,"ECCENTRICITY":0.00036368,"INCLINATION":97.3805,"RA_OF_ASC_NODE":291.899,"ARG_OF_PERICENTER":56.7108,"MEAN_ANOMALY":303.4496,"EPHEMERIS_TYPE":0,"NORAD_CAT_ID":58282,"ELEMENT_SET_NO":999,"REV_AT_EPOCH":15073,"BSTAR":0.00027692626,"MEAN_MOTION_DOT":0.00019996,"MEAN_MOTION_DDOT":0},{"OBJECT_NAME":"FLOCK 4Q-7","OBJECT_ID":"2023-174BQ","EPOCH":"2026-07-19T05:14:43.186560","CLASSIFICATION_TYPE":"U","MEAN_MOTION":15.57537555,"ECCENTRICITY":0.00042114,"INCLINATION":97.3902,"RA_OF_ASC_NODE":292.8445,"ARG_OF_PERICENTER":28.1721,"MEAN_ANOMALY":331.9762,"EPHEMERIS_TYPE":0,"NORAD_CAT_ID":58318,"ELEMENT_SET_NO":999,"REV_AT_EPOCH":15073,"BSTAR":0.00027672397,"MEAN_MOTION_DOT":0.00020294,"MEAN_MOTION_DDOT":0},{"OBJECT_NAME":"FLOCK 4Q-2","OBJECT_ID":"2023-174BS","EPOCH":"2026-07-19T06:37:54.437664","CLASSIFICATION_TYPE":"U","MEAN_MOTION":15.5095343,"ECCENTRICITY":0.00043684,"INCLINATION":97.3837,"RA_OF_ASC_NODE":289.5101,"ARG_OF_PERICENTER":38.6369,"MEAN_ANOMALY":321.5195,"EPHEMERIS_TYPE":0,"NORAD_CAT_ID":58320,"ELEMENT_SET_NO":999,"REV_AT_EPOCH":15057,"BSTAR":0.00024420307,"MEAN_MOTION_DOT":0.00014067,"MEAN_MOTION_DDOT":0},{"OBJECT_NAME":"FLOCK 4Q-9","OBJECT_ID":"2023-174BU","EPOCH":"2026-07-19T05:27:05.629536","CLASSIFICATION_TYPE":"U","MEAN_MOTION":15.51483891,"ECCENTRICITY":0.00052134,"INCLINATION":97.3845,"RA_OF_ASC_NODE":289.575,"ARG_OF_PERICENTER":36.8651,"MEAN_ANOMALY":323.2959,"EPHEMERIS_TYPE":0,"NORAD_CAT_ID":58322,"ELEMENT_SET_NO":999,"REV_AT_EPOCH":15055,"BSTAR":0.00027341985,"MEAN_MOTION_DOT":0.00016069,"MEAN_MOTION_DDOT":0},{"OBJECT_NAME":"FLOCK 4Q-4","OBJECT_ID":"2023-174BZ","EPOCH":"2026-07-19T05:53:14.587008","CLASSIFICATION_TYPE":"U","MEAN_MOTION":15.49976512,"ECCENTRICITY":0.00054513,"INCLINATION":97.3819,"RA_OF_ASC_NODE":288.6982,"ARG_OF_PERICENTER":63.6293,"MEAN_ANOMALY":296.5518,"EPHEMERIS_TYPE":0,"NORAD_CAT_ID":58327,"ELEMENT_SET_NO":999,"REV_AT_EPOCH":15052,"BSTAR":0.00023693925,"MEAN_MOTION_DOT":0.00013183,"MEAN_MOTION_DDOT":0},{"OBJECT_NAME":"FLOCK 4Q-13","OBJECT_ID":"2023-174CA","EPOCH":"2026-07-19T05:20:21.279264","CLASSIFICATION_TYPE":"U","MEAN_MOTION":15.52991681,"ECCENTRICITY":0.00055796,"INCLINATION":97.3997,"RA_OF_ASC_NODE":292.0077,"ARG_OF_PERICENTER":43.4648,"MEAN_ANOMALY":316.7044,"EPHEMERIS_TYPE":0,"NORAD_CAT_ID":58328,"ELEMENT_SET_NO":999,"REV_AT_EPOCH":15064,"BSTAR":0.00020867093,"MEAN_MOTION_DOT":0.00012918,"MEAN_MOTION_DDOT":0},{"OBJECT_NAME":"FLOCK 4BE-18","OBJECT_ID":"2024-149N","EPOCH":"2026-07-19T04:41:17.827872","CLASSIFICATION_TYPE":"U","MEAN_MOTION":15.42793691,"ECCENTRICITY":0.00053911,"INCLINATION":97.3717,"RA_OF_ASC_NODE":284.281,"ARG_OF_PERICENTER":134.1066,"MEAN_ANOMALY":226.0626,"EPHEMERIS_TYPE":0,"NORAD_CAT_ID":60480,"ELEMENT_SET_NO":999,"REV_AT_EPOCH":10724,"BSTAR":0.00023099464,"MEAN_MOTION_DOT":0.00010028,"MEAN_MOTION_DDOT":0},{"OBJECT_NAME":"FLOCK 4BE-7","OBJECT_ID":"2024-149P","EPOCH":"2026-07-19T05:33:41.100480","CLASSIFICATION_TYPE":"U","MEAN_MOTION":15.41579973,"ECCENTRICITY":0.00044318,"INCLINATION":97.3747,"RA_OF_ASC_NODE":283.6022,"ARG_OF_PERICENTER":138.2859,"MEAN_ANOMALY":221.8727,"EPHEMERIS_TYPE":0,"NORAD_CAT_ID":60481,"ELEMENT_SET_NO":999,"REV_AT_EPOCH":10718,"BSTAR":0.00035650451,"MEAN_MOTION_DOT":0.00014914,"MEAN_MOTION_DDOT":0},{"OBJECT_NAME":"FLOCK 4BE-36","OBJECT_ID":"2024-149U","EPOCH":"2026-07-19T05:08:53.543040","CLASSIFICATION_TYPE":"U","MEAN_MOTION":15.4362189,"ECCENTRICITY":0.00050468,"INCLINATION":97.3735,"RA_OF_ASC_NODE":285.0469,"ARG_OF_PERICENTER":141.5364,"MEAN_ANOMALY":218.6245,"EPHEMERIS_TYPE":0,"NORAD_CAT_ID":60486,"ELEMENT_SET_NO":999,"REV_AT_EPOCH":10729,"BSTAR":0.00020899164,"MEAN_MOTION_DOT":0.0000932,"MEAN_MOTION_DDOT":0},{"OBJECT_NAME":"FLOCK 4BE-25","OBJECT_ID":"2024-149V","EPOCH":"2026-07-19T04:51:22.305600","CLASSIFICATION_TYPE":"U","MEAN_MOTION":15.39611094,"ECCENTRICITY":0.00038688,"INCLINATION":97.3786,"RA_OF_ASC_NODE":283.5871,"ARG_OF_PERICENTER":132.9138,"MEAN_ANOMALY":227.2433,"EPHEMERIS_TYPE":0,"NORAD_CAT_ID":60487,"ELEMENT_SET_NO":999,"REV_AT_EPOCH":10716,"BSTAR":0.0001979471,"MEAN_MOTION_DOT":0.00007714,"MEAN_MOTION_DDOT":0},{"OBJECT_NAME":"FLOCK 4BE-31","OBJECT_ID":"2024-149W","EPOCH":"2026-07-19T05:08:17.721600","CLASSIFICATION_TYPE":"U","MEAN_MOTION":15.45255878,"ECCENTRICITY":0.00040223,"INCLINATION":97.3788,"RA_OF_ASC_NODE":286.0021,"ARG_OF_PERICENTER":141.0793,"MEAN_ANOMALY":219.0746,"EPHEMERIS_TYPE":0,"NORAD_CAT_ID":60488,"ELEMENT_SET_NO":999,"REV_AT_EPOCH":10732,"BSTAR":0.00023625998,"MEAN_MOTION_DOT":0.00011151,"MEAN_MOTION_DDOT":0},{"OBJECT_NAME":"FLOCK 4BE-20","OBJECT_ID":"2024-149X","EPOCH":"2026-07-19T04:21:10.883808","CLASSIFICATION_TYPE":"U","MEAN_MOTION":15.38874719,"ECCENTRICITY":0.00053028,"INCLINATION":97.3684,"RA_OF_ASC_NODE":282.3641,"ARG_OF_PERICENTER":142.0662,"MEAN_ANOMALY":218.0958,"EPHEMERIS_TYPE":0,"NORAD_CAT_ID":60489,"ELEMENT_SET_NO":999,"REV_AT_EPOCH":10713,"BSTAR":0.0001828661,"MEAN_MOTION_DOT":0.00006951,"MEAN_MOTION_DDOT":0},{"OBJECT_NAME":"FLOCK 4BE-23","OBJECT_ID":"2024-149Y","EPOCH":"2026-07-19T04:19:48.440064","CLASSIFICATION_TYPE":"U","MEAN_MOTION":15.38428524,"ECCENTRICITY":0.00049471,"INCLINATION":97.3771,"RA_OF_ASC_NODE":282.7557,"ARG_OF_PERICENTER":145.214,"MEAN_ANOMALY":214.943,"EPHEMERIS_TYPE":0,"NORAD_CAT_ID":60490,"ELEMENT_SET_NO":999,"REV_AT_EPOCH":10711,"BSTAR":0.00020731504,"MEAN_MOTION_DOT":0.00007777,"MEAN_MOTION_DDOT":0}]}
